{"type": "FeatureCollection", "features": [ {"type": "Feature", "properties": {"norad_id": 35480, "name": "IRIDIUM 33 DEB", "group": "iridium-33-debris", "lat": 28.12233497509941, "lon": 26.506109041484777, "alt_km": 721.8425712209255, "timestamp": "2025-12-13T13:34:35.426076+00:00", "meta": {"OBJECT_NAME": "IRIDIUM 33 DEB", "OBJECT_ID": "1997-051QA", "EPOCH": "2025-12-09T19:59:43.135296", "MEAN_MOTION": 14.49744632, "ECCENTRICITY": 0.00159269, "INCLINATION": 86.357, "RA_OF_ASC_NODE": 26.1722, "ARG_OF_PERICENTER": 113.2937, "MEAN_ANOMALY": 246.9945, "EPHEMERIS_TYPE": 0, "CLASSIFICATION_TYPE": "U", "NORAD_CAT_ID": 35480, "ELEMENT_SET_NO": 999, "REV_AT_EPOCH": 86989, "BSTAR": 0.0009193458, "MEAN_MOTION_DOT": 3.565e-05, "MEAN_MOTION_DDOT": 0}, "tle": {"line1": "1 35480U 97051QA  25343.83313814  .00003565  00000+0  91935-3 0  9998", "line2": "2 35480  86.3570  26.1722 0015926 113.2937 246.9945 14.49744632869893"}}, "geometry": {"type": "Point", "coordinates": [26.506109041484777, 28.12233497509941]}}, {"type": "Feature", "properties": {"norad_id": 35484, "name": "IRIDIUM 33 DEB", "group": "iridium-33-debris", "lat": -21.604345197367458, "lon": -9.085028033062837, "alt_km": 589.4382707412142, "timestamp": "2025-12-13T13:34:35.426089+00:00", "meta": {"OBJECT_NAME": "IRIDIUM 33 DEB", "OBJECT_ID": "1997-051QE", "EPOCH": "2025-12-12T07:13:32.804832", "MEAN_MOTION": 14.98607005, "ECCENTRICITY": 0.0023596, "INCLINATION": 86.3611, "RA_OF_ASC_NODE": 352.9505, "ARG_OF_PERICENTER": 126.5148, "MEAN_ANOMALY": 233.8262, "EPHEMERIS_TYPE": 0, "CLASSIFICATION_TYPE": "U", "NORAD_CAT_ID": 35484, "ELEMENT_SET_NO": 999, "REV_AT_EPOCH": 62009, "BSTAR": 0.0041273462, "MEAN_MOTION_DOT": 0.00050078, "MEAN_MOTION_DDOT": 0}, "tle": {"line1": "1 35484U 97051QE  25346.30107413  .00050078  00000+0  41273-2 0  9993", "line2": "2 35484  86.3611 352.9505 0023596 126.5148 233.8262 14.98607005620095"}}, "geometry": {"type": "Point", "coordinates": [-9.085028033062837, -21.604345197367458]}}, {"type": "Feature", "properties": {"norad_id": 35488, "name": "IRIDIUM 33 DEB", "group": "iridium-33-debris", "lat": 41.45379729415608, "lon": -56.247392430201394, "alt_km": 595.4910686852036, "timestamp": "2025-12-13T13:34:35.426103+00:00", "meta": {"OBJECT_NAME": "IRIDIUM 33 DEB", "OBJECT_ID": "1997-051QJ", "EPOCH": "2025-12-12T14:43:12.684864", "MEAN_MOTION": 14.83053941, "ECCENTRICITY": 0.00298615, "INCLINATION": 86.3248, "RA_OF_ASC_NODE": 300.9369, "ARG_OF_PERICENTER": 43.3071, "MEAN_ANOMALY": 317.049, "EPHEMERIS_TYPE": 0, "CLASSIFICATION_TYPE": "U", "NORAD_CAT_ID": 35488, "ELEMENT_SET_NO": 999, "REV_AT_EPOCH": 88264, "BSTAR": 0.0023232859, "MEAN_MOTION_DOT": 0.00019104, "MEAN_MOTION_DDOT": 0}, "tle": {"line1": "1 35488U 97051QJ  25346.61334126  .00019104  00000+0  23233-2 0  9995", "line2": "2 35488  86.3248 300.9369 0029861  43.3071 317.0490 14.83053941882645"}}, "geometry": {"type": "Point", "coordinates": [-56.247392430201394, 41.45379729415608]}}, {"type": "Feature", "properties": {"norad_id": 35616, "name": "IRIDIUM 33 DEB", "group": "iridium-33-debris", "lat": -17.399414553724153, "lon": 166.53248092590678, "alt_km": 622.8904537691596, "timestamp": "2025-12-13T13:34:35.426112+00:00", "meta": {"OBJECT_NAME": "IRIDIUM 33 DEB", "OBJECT_ID": "1997-051QN", "EPOCH": "2025-12-11T10:26:51.153792", "MEAN_MOTION": 14.81765908, "ECCENTRICITY": 0.00099847, "INCLINATION": 86.3548, "RA_OF_ASC_NODE": 346.3598, "ARG_OF_PERICENTER": 167.762, "MEAN_ANOMALY": 192.3847, "EPHEMERIS_TYPE": 0, "CLASSIFICATION_TYPE": "U", "NORAD_CAT_ID": 35616, "ELEMENT_SET_NO": 999, "REV_AT_EPOCH": 87555, "BSTAR": 0.0032912714, "MEAN_MOTION_DOT": 0.00026074, "MEAN_MOTION_DDOT": 0}, "tle": {"line1": "1 35616U 97051QN  25345.43531428  .00026074  00000+0  32913-2 0  9990", "line2": "2 35616  86.3548 346.3598 0009984 167.7620 192.3847 14.81765908875557"}}, "geometry": {"type": "Point", "coordinates": [166.53248092590678, -17.399414553724153]}}, {"type": "Feature", "properties": {"norad_id": 35618, "name": "IRIDIUM 33 DEB", "group": "iridium-33-debris", "lat": -55.24804634789669, "lon": 178.4343453171946, "alt_km": 742.3794244603241, "timestamp": "2025-12-13T13:34:35.426121+00:00", "meta": {"OBJECT_NAME": "IRIDIUM 33 DEB", "OBJECT_ID": "1997-051QQ", "EPOCH": "2025-12-05T07:42:53.148672", "MEAN_MOTION": 14.52258119, "ECCENTRICITY": 0.00302089, "INCLINATION": 86.3407, "RA_OF_ASC_NODE": 356.7447, "ARG_OF_PERICENTER": 46.3254, "MEAN_ANOMALY": 314.0448, "EPHEMERIS_TYPE": 0, "CLASSIFICATION_TYPE": "U", "NORAD_CAT_ID": 35618, "ELEMENT_SET_NO": 999, "REV_AT_EPOCH": 65286, "BSTAR": 0.00091388234, "MEAN_MOTION_DOT": 3.753e-05, "MEAN_MOTION_DDOT": 0}, "tle": {"line1": "1 35618U 97051QQ  25339.32144848  .00003753  00000+0  91388-3 0  9990", "line2": "2 35618  86.3407 356.7447 0030208  46.3254 314.0448 14.52258119652865"}}, "geometry": {"type": "Point", "coordinates": [178.4343453171946, -55.24804634789669]}}, {"type": "Feature", "properties": {"norad_id": 35620, "name": "IRIDIUM 33 DEB", "group": "iridium-33-debris", "lat": 5.783840651728317, "lon": 36.73884147133321, "alt_km": 751.9776494870885, "timestamp": "2025-12-13T13:34:35.426131+00:00", "meta": {"OBJECT_NAME": "IRIDIUM 33 DEB", "OBJECT_ID": "1997-051QS", "EPOCH": "2025-12-12T01:41:06.603648", "MEAN_MOTION": 14.38023351, "ECCENTRICITY": 0.01413324, "INCLINATION": 86.3886, "RA_OF_ASC_NODE": 217.736, "ARG_OF_PERICENTER": 261.1948, "MEAN_ANOMALY": 97.3224, "EPHEMERIS_TYPE": 0, "CLASSIFICATION_TYPE": "U", "NORAD_CAT_ID": 35620, "ELEMENT_SET_NO": 999, "REV_AT_EPOCH": 59956, "BSTAR": 0.0071195038, "MEAN_MOTION_DOT": 0.00024261, "MEAN_MOTION_DDOT": 0}, "tle": {"line1": "1 35620U 97051QS  25346.07021532  .00024261  00000+0  71195-2 0  9997", "line2": "2 35620  86.3886 217.7360 0141332 261.1948  97.3224 14.38023351599569"}}, "geometry": {"type": "Point", "coordinates": [36.73884147133321, 5.783840651728317]}}, {"type": "Feature", "properties": {"norad_id": 35622, "name": "IRIDIUM 33 DEB", "group": "iridium-33-debris", "lat": 79.96260905791817, "lon": 61.15308286059169, "alt_km": 547.7110927918729, "timestamp": "2025-12-13T13:34:35.426140+00:00", "meta": {"OBJECT_NAME": "IRIDIUM 33 DEB", "OBJECT_ID": "1997-051QU", "EPOCH": "2025-12-12T12:23:11.121216", "MEAN_MOTION": 15.04651104, "ECCENTRICITY": 0.00065616, "INCLINATION": 86.2021, "RA_OF_ASC_NODE": 263.7133, "ARG_OF_PERICENTER": 330.5495, "MEAN_ANOMALY": 206.7469, "EPHEMERIS_TYPE": 0, "CLASSIFICATION_TYPE": "U", "NORAD_CAT_ID": 35622, "ELEMENT_SET_NO": 999, "REV_AT_EPOCH": 87356, "BSTAR": 0.0072729917, "MEAN_MOTION_DOT": 0.00103625, "MEAN_MOTION_DDOT": 0}, "tle": {"line1": "1 35622U 97051QU  25346.51610094  .00103625  00000+0  72730-2 0  9993", "line2": "2 35622  86.2021 263.7133 0006561 330.5495 206.7469 15.04651104873561"}}, "geometry": {"type": "Point", "coordinates": [61.15308286059169, 79.96260905791817]}}, {"type": "Feature", "properties": {"norad_id": 35628, "name": "IRIDIUM 33 DEB", "group": "iridium-33-debris", "lat": 1.9575713593307507, "lon": -171.41743303234077, "alt_km": 678.5427772284702, "timestamp": "2025-12-13T13:34:35.426149+00:00", "meta": {"OBJECT_NAME": "IRIDIUM 33 DEB", "OBJECT_ID": "1997-051RA", "EPOCH": "2025-12-12T18:46:03.477216", "MEAN_MOTION": 14.67584351, "ECCENTRICITY": 0.00103833, "INCLINATION": 86.3581, "RA_OF_ASC_NODE": 9.0566, "ARG_OF_PERICENTER": 342.8162, "MEAN_ANOMALY": 17.2699, "EPHEMERIS_TYPE": 0, "CLASSIFICATION_TYPE": "U", "NORAD_CAT_ID": 35628, "ELEMENT_SET_NO": 999, "REV_AT_EPOCH": 86447, "BSTAR": 0.0018776311, "MEAN_MOTION_DOT": 0.00010694, "MEAN_MOTION_DDOT": 0}, "tle": {"line1": "1 35628U 97051RA  25346.78198469  .00010694  00000+0  18776-2 0  9998", "line2": "2 35628  86.3581   9.0566 0010383 342.8162  17.2699 14.67584351864471"}}, "geometry": {"type": "Point", "coordinates": [-171.41743303234077, 1.9575713593307507]}}, {"type": "Feature", "properties": {"norad_id": 35631, "name": "IRIDIUM 33 DEB", "group": "iridium-33-debris", "lat": 13.482025461199678, "lon": 21.493016144329477, "alt_km": 738.2595906819579, "timestamp": "2025-12-13T13:34:35.426158+00:00", "meta": {"OBJECT_NAME": "IRIDIUM 33 DEB", "OBJECT_ID": "1997-051RD", "EPOCH": "2025-12-12T13:19:47.349696", "MEAN_MOTION": 14.47310251, "ECCENTRICITY": 0.00189893, "INCLINATION": 86.367, "RA_OF_ASC_NODE": 21.0551, "ARG_OF_PERICENTER": 118.4889, "MEAN_ANOMALY": 34.8351, "EPHEMERIS_TYPE": 0, "CLASSIFICATION_TYPE": "U", "NORAD_CAT_ID": 35631, "ELEMENT_SET_NO": 999, "REV_AT_EPOCH": 87194, "BSTAR": 0.00054856017, "MEAN_MOTION_DOT": 2.031e-05, "MEAN_MOTION_DDOT": 0}, "tle": {"line1": "1 35631U 97051RD  25346.55540914  .00002031  00000+0  54856-3 0  9999", "line2": "2 35631  86.3670  21.0551 0018989 118.4889  34.8351 14.47310251871949"}}, "geometry": {"type": "Point", "coordinates": [21.493016144329477, 13.482025461199678]}}, {"type": "Feature", "properties": {"norad_id": 35680, "name": "IRIDIUM 33 DEB", "group": "iridium-33-debris", "lat": -84.46367489471339, "lon": -114.15414020979952, "alt_km": 722.9088750216333, "timestamp": "2025-12-13T13:34:35.426167+00:00", "meta": {"OBJECT_NAME": "IRIDIUM 33 DEB", "OBJECT_ID": "1997-051RJ", "EPOCH": "2025-12-10T20:56:41.216928", "MEAN_MOTION": 14.2086329, "ECCENTRICITY": 0.015045, "INCLINATION": 86.1029, "RA_OF_ASC_NODE": 22.3487, "ARG_OF_PERICENTER": 284.4866, "MEAN_ANOMALY": 255.1489, "EPHEMERIS_TYPE": 0, "CLASSIFICATION_TYPE": "U", "NORAD_CAT_ID": 35680, "ELEMENT_SET_NO": 999, "REV_AT_EPOCH": 60674, "BSTAR": 0.0056946, "MEAN_MOTION_DOT": 0.00013831, "MEAN_MOTION_DDOT": 0}, "tle": {"line1": "1 35680U 97051RJ  25344.87269927  .00013831  00000+0  56946-2 0  9999", "line2": "2 35680  86.1029  22.3487 0150450 284.4866 255.1489 14.20863290606741"}}, "geometry": {"type": "Point", "coordinates": [-114.15414020979952, -84.46367489471339]}}]}